OBJECT_NAME,OBJECT_ID,EPOCH,MEAN_MOTION,ECCENTRICITY,INCLINATION,RA_OF_ASC_NODE,ARG_OF_PERICENTER,MEAN_ANOMALY,EPHEMERIS_TYPE,CLASSIFICATION_TYPE,NORAD_CAT_ID,ELEMENT_SET_NO,REV_AT_EPOCH,BSTAR,MEAN_MOTION_DOT,MEAN_MOTION_DDOT
ASNARO-2,2018-007A,2026-06-04T02:33:02.943648,15.22386229,.0001828,97.3973,162.2376,89.5685,270.5761,0,U,43152,999,46542,.28807E-3,.6584E-4,0
JILIN-1 07,2018-008E,2026-06-03T22:06:53.557344,15.34489622,.00102391,97.1772,175.2058,103.7414,256.4970,0,U,43159,999,46296,.30152215E-3,.10015E-3,0
JILIN-1 08,2018-008F,2026-06-03T21:55:03.739872,15.33546878,.00078855,97.1804,174.5278,116.0296,244.1760,0,U,43160,999,46291,.22424518E-3,.7202E-4,0
LEMUR-2-KADI,2018-014E,2026-06-03T07:46:08.274432,16.22065807,.00099834,97.4341,85.7610,210.8841,149.1863,0,U,43184,999,45889,.16818226E-2,.3743155E-1,.2476797E-5
S-NET D,2018-014G,2026-06-03T12:58:13.949472,15.16536098,.00099388,97.5372,59.4172,70.8529,289.3779,0,U,43186,999,45669,.31518571E-3,.6087E-4,0
S-NET B,2018-014H,2026-06-03T19:34:24.189600,15.16508833,.0010461,97.5378,59.6766,65.8455,294.3871,0,U,43187,999,45673,.31648322E-3,.6108E-4,0
S-NET A,2018-014J,2026-06-03T06:36:40.036032,15.16540722,.00104276,97.5390,59.3462,67.9189,292.3150,0,U,43188,999,45665,.31717804E-3,.6127E-4,0
S-NET C,2018-014K,2026-06-03T06:59:45.511008,15.16493858,.00116454,97.5406,59.4346,61.0421,299.1978,0,U,43189,999,45520,.31370426E-3,.6053E-4,0
PAZ,2018-020A,2026-06-03T22:24:01.752768,15.19146326,.00016534,97.4455,162.5075,87.2472,272.8952,0,U,43215,999,45899,.57860041E-4,.1148E-4,0
GOES 17,2018-022A,2026-06-03T21:44:13.863264,1.00271800,.00007616,0.9040,85.9584,4.0171,38.9536,0,U,43226,999,3029,0,-.171E-5,0
LKW-4,2018-025A,2026-06-02T00:30:43.532352,15.61015210,.00020813,97.6336,322.7217,14.9090,345.2228,0,U,43236,999,45766,.55427461E-3,.46614E-3,0
ZHUHAI-1 OVS-02,2018-040B,2026-06-03T23:26:08.107008,15.24838421,.00020619,97.0390,172.9912,336.3651,23.7493,0,U,43440,999,45070,.31671031E-3,.7801E-4,0
ZHUHAI-1 OHS-02,2018-040C,2026-06-03T23:15:13.582080,15.25678724,.00072654,97.0373,179.9104,278.4579,81.5837,0,U,43441,999,11226,.33813596E-3,.8552E-4,0
GAOFEN-6,2018-048A,2026-06-03T22:11:51.886176,14.76614707,.00110614,97.7761,218.0945,212.4618,147.5913,0,U,43484,999,43143,.59861513E-4,.369E-5,0
LUOJIA-1 01,2018-048B,2026-06-03T22:05:10.190112,14.87233416,.00094779,97.8107,233.3214,156.1386,204.0271,0,U,43485,999,43224,.18602768E-3,.1622E-4,0
PAKTES 1A,2018-056A,2026-06-03T22:07:33.089664,14.99038976,.00222399,98.1290,310.8420,147.8955,212.3626,0,U,43529,999,42993,.41440114E-3,.4987E-4,0
PRSS-1,2018-056B,2026-06-03T22:56:56.147424,14.81968339,.00017957,97.7823,223.1919,80.6501,279.4915,0,U,43530,999,42647,.17654047E-3,.1348E-4,0
HAIYANG-1C,2018-068A,2026-06-03T22:04:16.157280,14.34174145,.00117725,98.5192,227.4190,129.9421,230.2800,0,U,43609,999,40518,.18676856E-4,.9E-7,0
SSTL S1-4,2018-071A,2026-06-02T15:25:10.816320,14.96202660,.0000819,97.5040,25.8610,100.9597,259.1717,0,U,43618,999,42076,.92356E-4,.987E-5,0
HAIYANG-2B,2018-081A,2026-06-03T23:03:46.745280,13.79307891,.00009561,99.3281,163.9166,22.5120,337.6074,0,U,43655,999,38310,-.1782746E-4,-.62E-6,0
CFOSAT,2018-083A,2026-06-03T21:29:46.381344,15.16374708,.00019724,97.3604,159.8194,97.2214,262.9244,0,U,43662,999,42042,.21449747E-3,.4099E-4,0
TEN-KOH,2018-084G,2026-06-03T14:35:51.069408,15.02879943,.00100832,98.0773,346.3982,158.8702,201.2941,0,U,43677,999,41412,.23806365E-3,.3129E-4,0
DIWATA-2B,2018-084H,2026-06-03T21:34:09.960096,15.00387286,.00117625,98.1150,350.5322,214.6926,145.3530,0,U,43678,999,41422,.27489812E-3,.3392E-4,0
STARS-AO,2018-084J,2026-06-03T19:33:56.199456,15.16895069,.00019162,98.0510,7.9633,169.6123,190.5148,0,U,43679,999,41544,.3503287E-3,.6828E-4,0
AUTCUBE 2,2018-084K,2026-06-03T12:19:38.794944,15.09991843,.0010404,98.0716,359.9634,89.9098,270.3322,0,U,43681,999,41486,.2927E-3,.4689E-4,0
METOP-C,2018-087A,2026-06-03T21:44:02.706432,14.21508383,.00012396,98.6649,214.7514,143.9095,216.2167,0,U,43689,999,39294,.77220125E-4,.126E-5,0
ES'HAIL 2,2018-090A,2026-06-03T20:34:26.033664,1.00272337,.00019708,0.0179,1.1383,105.3537,120.2160,0,U,43700,999,2754,0,.156E-5,0
MOHAMMED VI-B,2018-095A,2026-06-03T21:35:30.678432,14.77099876,.00011658,97.9557,227.4070,90.9119,269.2225,0,U,43717,999,40622,.1440552E-3,.967E-5,0
HYSIS,2018-096A,2026-06-03T22:45:33.857856,14.78667104,.00015538,97.9842,221.7988,118.4200,241.7168,0,U,43719,999,40546,.20106125E-3,.1422E-4,0
